NORAD_CAT_ID,OBJECT_NAME,OBJECT_TYPE,EPOCH,MEAN_MOTION,ECCENTRICITY,INCLINATION,RA_OF_ASC_NODE,ARG_OF_PERICENTER,MEAN_ANOMALY,BSTAR,MEAN_MOTION_DOT,MEAN_MOTION_DDOT,TLE_LINE0,TLE_LINE1,TLE_LINE2,SEMIMAJOR_AXIS,PERIOD,APOGEE,PERIGEE,DECAYED
51860.0,STARLINK-3559,PAYLOAD,2022-08-06 12:09:00,15.08834563,0.0001747,53.2166,135.2394,62.5331,297.5838,9.3163e-06,-1.4e-06,0.0,0 STARLINK-3559,1 51860U 22022J   22218.50625438 -.00000140  00000-0  93163-5 0  9999,2 51860  53.2166 135.2394 0001747  62.5331 297.5838 15.08834563 25171,6917.897,95.438,540.971,538.553,0.0
51860.0,STARLINK-3559,PAYLOAD,2022-08-06 21:41:18,15.0883927,0.0001756,53.2172,133.4543,64.2495,295.8678,3.2585e-05,2.31e-06,0.0,0 STARLINK-3559,1 51860U 22022J   22218.90369116  .00000231  00000-0  32585-4 0  9991,2 51860  53.2172 133.4543 0001756  64.2495 295.8678 15.08839270 25234,6917.8830000000025,95.438,540.962,538.533,0.0
51860.0,STARLINK-3559,PAYLOAD,2022-08-07 06:00:00,15.08805117,0.0001827,53.2158,131.9002,57.8442,24.4522,0.0024919,0.00039556,0.0,0 STARLINK-3559,1 51860U 22022J   22219.25001157  .00039556  00000-0  24919-2 0  9990,2 51860  53.2158 131.9002 0001827  57.8442  24.4522 15.08805117 25282,6917.986999999999,95.44,541.116,538.5880000000002,0.0
51860.0,STARLINK-3559,PAYLOAD,2022-08-07 14:00:01,15.08807622,0.0001699,53.2163,130.4021,65.3545,28.5213,0.0025237,0.0004007,0.0,0 STARLINK-3559,1 51860U 22022J   22219.58334491  .00040070  00000-0  25237-2 0  9993,2 51860  53.2163 130.4021 0001699  65.3545  28.5213 15.08807622  1300,6917.979,95.44,541.02,538.669,0.0
51860.0,STARLINK-3559,PAYLOAD,2022-08-07 22:00:00,15.08851035,0.0001817,53.2165,128.9066,64.6531,40.7939,-0.0015802,-0.00025357,0.0,0 STARLINK-3559,1 51860U 22022J   22219.91667824 -.00025357  00000-0 -15802-2 0  9999,2 51860  53.2165 128.9066 0001817  64.6531  40.7939 15.08851035 25384,6917.847,95.437,540.969,538.455,0.0
51860.0,STARLINK-3559,PAYLOAD,2022-08-08 03:53:38,15.08843783,0.0001857,53.2177,127.8038,67.3777,292.7411,-3.0751e-05,-7.78e-06,0.0,0 STARLINK-3559,1 51860U 22022J   22220.16225203 -.00000778  00000-0 -30751-4 0  9991,2 51860  53.2177 127.8038 0001857  67.3777 292.7411 15.08843783 25420,6917.869000000002,95.437,541.018,538.4490000000002,0.0
51860.0,STARLINK-3559,PAYLOAD,2022-08-08 14:00:01,15.08852558,0.0001673,53.2168,125.913,66.6758,62.0591,0.0010843,0.00017017,0.0,0 STARLINK-3559,1 51860U 22022J   22220.58335648  .00017017  00000-0  10843-2 0  9992,2 51860  53.2168 125.9130 0001673  66.6758  62.0591 15.08852558  1307,6917.842,95.437,540.864,538.55,0.0
51860.0,STARLINK-3559,PAYLOAD,2022-08-08 22:00:00,15.08867908,0.0001688,53.2171,124.4177,64.0415,76.2491,-0.0021399,-0.00034209,0.0,0 STARLINK-3559,1 51860U 22022J   22220.91667824 -.00034209  00000-0 -21399-2 0  9995,2 51860  53.2171 124.4177 0001688  64.0415  76.2491 15.08867908  1305,6917.795,95.436,540.828,538.492,0.0
51860.0,STARLINK-3559,PAYLOAD,2022-08-09 14:00:01,15.08791536,0.0001392,53.217,121.4241,63.4696,100.0283,0.002443,0.00038755,0.0,0 STARLINK-3559,1 51860U 22022J   22221.58334491  .00038755  00000-0  24430-2 0  9997,2 51860  53.2170 121.4241 0001392  63.4696 100.0283 15.08791536  1307,6918.029,95.441,540.857,538.931,0.0
51860.0,STARLINK-3559,PAYLOAD,2022-08-09 22:00:00,15.08825749,0.0001499,53.2172,119.9292,61.2855,113.7621,-0.0011779,-0.00018978,0.0,0 STARLINK-3559,1 51860U 22022J   22221.91667824 -.00018978  00000-0 -11779-2 0  9992,2 51860  53.2172 119.9292 0001499  61.2855 113.7621 15.08825749  1309,6917.924,95.438,540.826,538.752,0.0
51860.0,STARLINK-3559,PAYLOAD,2022-08-10 06:00:00,15.08821423,0.0001549,53.2168,118.4334,56.622,129.9963,0.0010812999999999,0.00016954,0.0,0 STARLINK-3559,1 51860U 22022J   22222.25001157  .00016954  00000-0  10813-2 0  9999,2 51860  53.2168 118.4334 0001549  56.6220 129.9963 15.08821423 25731,6917.937,95.439,540.874,538.731,0.0
51860.0,STARLINK-3559,PAYLOAD,2022-08-10 14:00:01,15.08809762,0.0001414,53.2168,116.9355,65.8947,132.3093,0.0030108,0.00047915,0.0,0 STARLINK-3559,1 51860U 22022J   22222.58334491  .00047915  00000-0  30108-2 0  9995,2 51860  53.2168 116.9355 0001414  65.8947 132.3093 15.08809762  1307,6917.973000000001,95.439,540.816,538.86,0.0
51860.0,STARLINK-3559,PAYLOAD,2022-08-10 22:00:00,15.08846022,0.0001516,53.2168,115.4407,62.6535,147.1263,-0.0011187999999999,-0.00018052,0.0,0 STARLINK-3559,1 51860U 22022J   22222.91667824 -.00018052  00000-0 -11188-2 0  9990,2 51860  53.2168 115.4407 0001516  62.6535 147.1263 15.08846022  1303,6917.861999999999,95.437,540.776,538.678,0.0
51860.0,STARLINK-3559,PAYLOAD,2022-08-11 06:00:02,15.08849528,0.0001501999999999,53.2164,113.9445,57.9856,163.4476,-0.0025776999999999,-0.00041089,0.0,0 STARLINK-3559,1 51860U 22022J   22223.25002315 -.00041089  00000-0 -25777-2 0  9991,2 51860  53.2164 113.9445 0001502  57.9856 163.4476 15.08849528 25882,6917.851,95.437,540.755,538.677,0.0
51860.0,STARLINK-3559,PAYLOAD,2022-08-11 14:00:01,15.08801779,0.0001358,53.2163,112.4467,66.1184,166.8509,0.002954,0.00046989,0.0,0 STARLINK-3559,1 51860U 22022J   22223.58334491  .00046989  00000-0  29540-2 0  9994,2 51860  53.2163 112.4467 0001358  66.1184 166.8509 15.08801779  1305,6917.996999999999,95.44,540.802,538.923,0.0
51860.0,STARLINK-3559,PAYLOAD,2022-08-11 22:00:00,15.0883653,0.0001478,53.2162,110.9519,61.7124,182.8261,-0.00083659,-0.00013576,0.0,0 STARLINK-3559,1 51860U 22022J   22223.91667824 -.00013576  00000-0 -83659-3 0  9990,2 51860  53.2162 110.9519 0001478  61.7124 182.8261 15.08836530 25989,6917.891,95.438,540.778,538.734,0.0
51860.0,STARLINK-3559,PAYLOAD,2022-08-12 14:00:01,15.08809844,0.0001467,53.2158,107.9577,56.1796,211.4547,0.0034097,0.00054351,0.0,0 STARLINK-3559,1 51860U 22022J   22224.58334491  .00054351  00000-0  34097-2 0  9990,2 51860  53.2158 107.9577 0001467  56.1796 211.4547 15.08809844 26081,6917.973000000001,95.439,540.852,538.823,0.0
51860.0,STARLINK-3559,PAYLOAD,2022-08-12 22:00:01,15.08840591,0.0001638,53.2158,106.4628,52.0346,227.2369,-0.00062822,-0.00010272,0.0,0 STARLINK-3559,1 51860U 22022J   22224.91668981 -.00010272  00000-0 -62822-3 0  9995,2 51860  53.2158 106.4628 0001638  52.0346 227.2369 15.08840591 26135,6917.879,95.438,540.877,538.61,0.0
51860.0,STARLINK-3559,PAYLOAD,2022-08-13 14:00:01,15.08850051,0.0001561,53.2158,103.4682,59.2483,243.1747,0.0010251,0.00016069,0.0,0 STARLINK-3559,1 51860U 22022J   22225.58334491  .00016069  00000-0  10251-2 0  9991,2 51860  53.2158 103.4682 0001561  59.2483 243.1747 15.08850051  1309,6917.85,95.437,540.795,538.635,0.0
51860.0,STARLINK-3559,PAYLOAD,2022-08-13 22:00:00,15.0884938,0.0001785,53.2158,101.9733,56.0146,258.0277,-0.0010907,-0.00017609,0.0,0 STARLINK-3559,1 51860U 22022J   22225.91667824 -.00017609  00000-0 -10907-2 0  9998,2 51860  53.2158 101.9733 0001785  56.0146 258.0277 15.08849380  1304,6917.852,95.437,540.952,538.482,0.0
51860.0,STARLINK-3559,PAYLOAD,2022-08-14 06:00:02,15.08856822,0.0001776,53.2161,100.4791,52.5522,273.1461,-0.00056854,-9.329e-05,0.0,0 STARLINK-3559,1 51860U 22022J   22226.25002315 -.00009329  00000-0 -56854-3 0  9996,2 51860  53.2161 100.4791 0001776  52.5522 273.1461 15.08856822 26337,6917.829000000002,95.436,540.923,538.465,0.0
51860.0,STARLINK-3559,PAYLOAD,2022-08-14 14:00:01,15.0885,0.0001663,53.216,98.9785,60.4867,276.7692,0.00056186,8.668e-05,0.0,0 STARLINK-3559,1 51860U 22022J   22226.58334491  .00008668  00000-0  56186-3 0  9996,2 51860  53.2160  98.9785 0001663  60.4867 276.7692 15.08850000  1302,6917.85,95.437,540.865,538.564,0.0
51860.0,STARLINK-3559,PAYLOAD,2022-08-14 22:00:00,15.08845242,0.0001774999999999,53.2161,97.4837,54.2603,294.6079,-0.00089653,-0.0001453,0.0,0 STARLINK-3559,1 51860U 22022J   22226.91667824 -.00014530  00000-0 -89653-3 0  9994,2 51860  53.2161  97.4837 0001775  54.2603 294.6079 15.08845242  1308,6917.864000000001,95.437,540.957,538.501,0.0
51860.0,STARLINK-3559,PAYLOAD,2022-08-15 14:00:01,15.08835392,0.0001587,53.2164,94.489,59.1864,312.8813,0.00021669,3.162e-05,0.0,0 STARLINK-3559,1 51860U 22022J   22227.58334491  .00003162  00000-0  21669-3 0  9999,2 51860  53.2164  94.4890 0001587  59.1864 312.8813 15.08835392  1305,6917.894,95.438,540.857,538.6619999999998,0.0
51860.0,STARLINK-3559,PAYLOAD,2022-08-15 16:00:00,15.08842186,0.0001594,53.2166,94.1151,59.1195,45.8439,-0.00063185,-0.0001032999999999,0.0,0 STARLINK-3559,1 51860U 22022J   22227.66667824 -.00010330  00000-0 -63185-3 0  9993,2 51860  53.2166  94.1151 0001594  59.1195  45.8439 15.08842186 26559,6917.874,95.437,540.841,538.636,0.0
51860.0,STARLINK-3559,PAYLOAD,2022-08-15 22:00:00,15.08830854,0.000172,53.2164,92.9942,52.8158,330.8406,-0.00050984,-8.391e-05,0.0,0 STARLINK-3559,1 51860U 22022J   22227.91667824 -.00008391  00000-0 -50984-3 0  9998,2 51860  53.2164  92.9942 0001720  52.8158 330.8406 15.08830854  1307,6917.908,95.438,540.9630000000002,538.5830000000002,0.0
51860.0,STARLINK-3559,PAYLOAD,2022-08-16 14:00:01,15.08828746,0.0001565999999999,53.2167,89.9996,59.8929,346.939,0.0024164,0.00038367,0.0,0 STARLINK-3559,1 51860U 22022J   22228.58334491  .00038367  00000-0  24164-2 0  9997,2 51860  53.2167  89.9996 0001566  59.8929 346.9390 15.08828746  1303,6917.915,95.438,540.863,538.696,0.0
51860.0,STARLINK-3559,PAYLOAD,2022-08-16 22:00:00,15.08848492,0.0001730999999999,53.2166,88.5049,54.3675,4.0622,-0.00042585,-7.061e-05,0.0,0 STARLINK-3559,1 51860U 22022J   22228.91667824 -.00007061  00000-0 -42585-3 0  9990,2 51860  53.2166  88.5049 0001731  54.3675   4.0622 15.08848492 26743,6917.854,95.437,540.9169999999998,538.5219999999998,0.0
51860.0,STARLINK-3559,PAYLOAD,2022-08-17 16:00:00,15.08842427,0.0001686999999999,53.2169,85.1367,63.4052,111.1183,-0.00026356,-4.481e-05,0.0,0 STARLINK-3559,1 51860U 22022J   22229.66667824 -.00004481  00000-0 -26356-3 0  9994,2 51860  53.2169  85.1367 0001687  63.4052 111.1183 15.08842427  1301,6917.873000000001,95.437,540.905,538.571,0.0
